0 COSMOS 1375 DEB
1 17106U 82055AH  13282.11200471  .00000245  00000-0  29677-3 0  9172
2 17106 065.8303 090.3349 0029662 295.0825 167.4515 13.83373131579010
0 COSMOS 1375 DEB
1 17106U 82055AH  13283.47147117  .00000223  00000-0  27629-3 0  9181
2 17106 065.8305 086.9278 0029718 294.5754 097.6162 13.83374287579207
0 COSMOS 1375 DEB
1 17106U 82055AH  13285.93943528  .00000215  00000-0  26933-3 0  9205
2 17106 065.8310 080.7424 0029797 293.7721 148.0156 13.83375966579546
0 COSMOS 1375 DEB
1 17106U 82055AH  13287.44790017  .00000228  00000-0  28082-3 0  9218
2 17106 065.8314 076.9621 0029895 293.1588 100.2623 13.83377130579757
0 COSMOS 1375 DEB
1 17106U 82055AH  13288.90336929  .00000293  00000-0  33958-3 0  9229
2 17106 065.8317 073.3145 0029971 292.6021 148.5607 13.83378487579958
0 COSMOS 1375 DEB
1 17106U 82055AH  13290.41166251  .00000298  00000-0  34480-3 0  9234
2 17106 065.8319 069.5348 0030094 292.0140 099.9416 13.83379597580161
0 COSMOS 1375 DEB
1 17106U 82055AH  13291.80352551  .00000345  00000-0  38677-3 0  9244
2 17106 065.8321 066.0469 0030199 291.4640 191.5092 13.83380320580350
0 COSMOS 1375 DEB
1 17106U 82055AH  13292.82196513  .00000375  00000-0  41371-3 0  9250
2 17106 065.8321 063.4948 0030234 291.1158 223.3507 13.83380992580499
0 COSMOS 1375 DEB
1 17106U 82055AH  13294.83111235  .00000372  00000-0  41118-3 0  9268
2 17106 065.8323 058.4599 0030361 290.4328 148.9322 13.83383039580772
